HST                     
1 20580U 90037B   26190.37312173  .00004895  00000+0  15121-3 0  9997
2 20580  28.4735 288.9155 0002017  48.5299 311.5470 15.31019723791977
POLAR                   
1 23802U 96013A   26190.37387630  .00000218  00000+0  00000+0 0  9998
2 23802  79.8824 226.7888 6492765 208.3159  91.3168  1.29846086145140
SWAS                    
1 25560U 98071A   26190.41097109  .00001835  00000+0  11999-3 0  9990
2 25560  69.8940 170.2021 0008171 236.6385 123.3997 15.09726203500621
CXO                     
1 25867U 99040B   26193.17780626  .00000693  00000+0  00000+0 0  9994
2 25867  56.5436 115.9395 7801621 310.0685   0.3422  0.37804200 17418
XMM-NEWTON              
1 25989U 99066A   26193.28213418  .00000088  00000+0  00000+0 0  9997
2 25989  64.3559 282.6652 4668218  64.4827   0.1151  0.50124873 23131
TERRA                   
1 25994U 99068A   26191.30709104  .00000227  00000+0  55092-4 0  9999
2 25994  97.9443 239.9353 0003204 132.4782 318.6101 14.61121317412988
CLUSTER II-FM7 (SAMBA)  
1 26410U 00041A   26192.68021872  .00012833  00000+0  00000+0 0  9997
2 26410 149.8437  55.3938 9082311 272.8334 359.6328  0.44896530 20420
CLUSTER II-FM8 (TANGO)  
1 26464U 00045B   26188.69922144  .00008170  00000+0  00000+0 0  9997
2 26464 150.0768  55.7803 9084327 273.0277   2.3481  0.44419476 20403
ODIN                    
1 26702U 01007A   26191.07630392  .00284972  00000+0  10948-2 0  9999
2 26702  97.3780 233.6455 0005161 144.7958 215.3655 15.86650457393012
TIMED                   
1 26998U 01055B   26190.95624113  .00000724  00000+0  69252-4 0  9994
2 26998  74.0662 189.1714 0002126 305.9213  54.1774 14.95337781334226
CORIOLIS                
1 27640U 03001A   26190.53456389  .00000060  00000+0  48552-4 0  9997
2 27640  98.7131 197.0783 0014679 144.6326 215.5827 14.19950705217391
SORCE                   
1 27651U 03004A   26191.25065516  .00001905  00000+0  14655-3 0  9995
2 27651  39.9899 130.0780 0018386 221.1032 138.8377 15.03826851275376
MOST                    
1 27843U 03031D   26190.73822203  .00000036  00000+0  36357-4 0  9992
2 27843  98.7050 198.1496 0009748 180.6946 179.4219 14.21326963193918
SCISAT 1                
1 27858U 03036A   26190.78034802  .00000444  00000+0  61285-4 0  9999
2 27858  73.9302 126.4534 0007648 195.5821 164.5121 14.81474956234791
SWIFT                   
1 28485U 04047A   26191.19538382  .00051470  00000+0  38672-3 0  9995
2 28485  20.5530   7.1183 0001332 321.9064  38.1288 15.70741555190480
HINODE (SOLAR-B)        
1 29479U 06041A   26191.00933188  .00000424  00000+0  81156-4 0  9997
2 29479  98.0547 206.8254 0016620 211.4492 148.5721 14.68654121 58224
SHIJIAN-6 02A (SJ-6 02A)
1 29505U 06046A   26191.30885586  .00002649  00000+0  13675-3 0  9994
2 29505  97.6356 232.5504 0004538  74.3673 285.8060 15.17210309 75774
SHIJIAN-6 02B (SJ-6 02B)
1 29506U 06046B   26191.27247527  .00000837  00000+0  69475-4 0  9995
2 29506  97.7156 220.1885 0013994 352.9137   7.1887 15.01432132 74207
FGRST (GLAST)           
1 33053U 08029A   26191.27613325  .00002500  00000+0  86622-4 0  9995
2 33053  25.5829  44.1484 0007732 238.2905 121.6880 15.24059209999369
SDO                     
1 36395U 10005A   26190.29623794 -.00000089  00000+0  00000+0 0  9998
2 36395  34.6945  86.0076 0001880  60.2380 145.3020  1.00269380 60282
CRYOSAT 2               
1 36508U 10013A   26191.30760610  .00000127  00000+0  30811-4 0  9995
2 36508  92.0358 282.9223 0002322  98.0247 262.1224 14.51897242861432
X-SAT                   
1 37389U 11015C   26191.25283164  .00000280  00000+0  13644-3 0  9998
2 37389  98.3524 167.1788 0012714 276.8745  83.0988 14.25213879790964
GCOM-W1 (SHIZUKU)       
1 38337U 12025A   26191.32891300  .00000261  00000+0  68026-4 0  9993
2 38337  98.2025 131.5352 0001374  74.4932  78.1121 14.57087597752407
NUSTAR                  
1 38358U 12031A   26191.33336806  .00003806  00000+0  18095-3 0  9997
2 38358   6.0248 220.4971 0007078  95.5605  68.6517 15.09017539  1303
NEOSSAT                 
1 39089U 13009D   26190.43946797  .00000109  00000+0  52521-4 0  9997
2 39089  98.4187   9.9440 0011080 173.9159 186.2163 14.35834260699938
BRITE-AUSTRIA           
1 39091U 13009F   26190.98422785  .00000106  00000+0  50637-4 0  9999
2 39091  98.4005   9.8568 0010453 165.5592 194.5896 14.36551135700320
IRIS                    
1 39197U 13033A   26191.26253382  .00000687  00000+0  84780-4 0  9990
2 39197  97.9321  30.4669 0023087 242.0355 117.8524 14.85930789703801
HISAKI (SPRINT-A)       
1 39253U 13049A   26191.03333673  .00000085  00000+0  24902-4 0  9999
2 39253  29.7200 103.8555 0136939 202.0707 157.3924 13.55546435634522
CASSIOPE                
1 39265U 13055A   26191.23884773  .00028633 -50157-6  30743-3 0  9997
2 39265  80.9139  38.6818 0284067 344.6889  14.5871 15.27193547671183
STSAT-3                 
1 39422U 13066G   26191.28377126  .00001434  00000+0  11141-3 0  9993
2 39422  97.6196 160.8000 0008992 326.1439  33.9211 15.02871860687672
SWARM B                 
1 39451U 13067A   26191.30809141  .00002474  00000+0  87453-4 0  9991
2 39451  87.7452 335.2925 0002505  81.6982 278.4552 15.28697573686772
