OBJECT_NAME,OBJECT_ID,EPOCH,MEAN_MOTION,ECCENTRICITY,INCLINATION,RA_OF_ASC_NODE,ARG_OF_PERICENTER,MEAN_ANOMALY,EPHEMERIS_TYPE,CLASSIFICATION_TYPE,NORAD_CAT_ID,ELEMENT_SET_NO,REV_AT_EPOCH,BSTAR,MEAN_MOTION_DOT,MEAN_MOTION_DDOT
HST,1990-037B,2026-07-09T08:57:17.717472,15.31019723,.0002017,28.4735,288.9155,48.5299,311.5470,0,U,20580,999,79197,.15120706E-3,.4895E-4,0
POLAR,1996-013A,2026-07-09T08:58:22.912320,1.29846086,.64927653,79.8824,226.7888,208.3159,91.3168,0,U,23802,999,14514,0,.218E-5,0
SWAS,1998-071A,2026-07-09T09:51:47.902176,15.09726203,.00081717,69.8940,170.2021,236.6385,123.3997,0,U,25560,999,50062,.11999115E-3,.1835E-4,0
CXO,1999-040B,2026-07-12T04:16:02.460864,0.37804200,.78016213,56.5436,115.9395,310.0685,0.3422,0,U,25867,999,1741,0,.693E-5,0
XMM-NEWTON,1999-066A,2026-07-12T06:46:16.393152,0.50124873,.46682181,64.3559,282.6652,64.4827,0.1151,0,U,25989,999,2313,0,.88E-6,0
TERRA,1999-068A,2026-07-10T07:22:12.665856,14.61121317,.00032042,97.9443,239.9353,132.4782,318.6101,0,U,25994,999,41298,.550922E-4,.227E-5,0
CLUSTER II-FM7 (SAMBA),2000-041A,2026-07-11T16:19:30.897408,0.44896530,.90823116,149.8437,55.3938,272.8334,359.6328,0,U,26410,999,2042,0,.12833E-3,0
CLUSTER II-FM8 (TANGO),2000-045B,2026-07-07T16:46:52.732416,0.44419476,.90843277,150.0768,55.7803,273.0277,2.3481,0,U,26464,999,2040,0,.817E-4,0
ODIN,2001-007A,2026-07-10T01:49:52.658688,15.86650457,.00051617,97.3780,233.6455,144.7958,215.3655,0,U,26702,999,39301,.10947503E-2,.284972E-2,0
TIMED,2001-055B,2026-07-09T22:56:59.233632,14.95337781,.00021263,74.0662,189.1714,305.9213,54.1774,0,U,26998,999,33422,.69251623E-4,.724E-5,0
CORIOLIS,2003-001A,2026-07-09T12:49:46.320096,14.19950705,.00146799,98.7131,197.0783,144.6326,215.5827,0,U,27640,999,21739,.48552207E-4,.6E-6,0
SORCE,2003-004A,2026-07-10T06:00:56.605824,15.03826851,.00183865,39.9899,130.0780,221.1032,138.8377,0,U,27651,999,27537,.14654554E-3,.1905E-4,0
MOST,2003-031D,2026-07-09T17:43:02.383392,14.21326963,.00097482,98.7050,198.1496,180.6946,179.4219,0,U,27843,999,19391,.3635718E-4,.36E-6,0
SCISAT 1,2003-036A,2026-07-09T18:43:42.068928,14.81474956,.00076489,73.9302,126.4534,195.5821,164.5121,0,U,27858,999,23479,.61285142E-4,.444E-5,0
SWIFT,2004-047A,2026-07-10T04:41:21.162048,15.70741555,.00013321,20.5530,7.1183,321.9064,38.1288,0,U,28485,999,19048,.38671991E-3,.5147E-3,0
HINODE (SOLAR-B),2006-041A,2026-07-10T00:13:26.274432,14.68654121,.001662,98.0547,206.8254,211.4492,148.5721,0,U,29479,999,5822,.81155673E-4,.424E-5,0
SHIJIAN-6 02A (SJ-6 02A),2006-046A,2026-07-10T07:24:45.146304,15.17210309,.00045386,97.6356,232.5504,74.3673,285.8060,0,U,29505,999,7577,.136751E-3,.2649E-4,0
SHIJIAN-6 02B (SJ-6 02B),2006-046B,2026-07-10T06:32:21.863328,15.01432132,.00139946,97.7156,220.1885,352.9137,7.1887,0,U,29506,999,7420,.69475498E-4,.837E-5,0
FGRST (GLAST),2008-029A,2026-07-10T06:37:37.912800,15.24059209,.00077327,25.5829,44.1484,238.2905,121.6880,0,U,33053,999,99936,.86621977E-4,.25E-4,0
SDO,2010-005A,2026-07-09T07:06:34.958016,1.00269380,.00018801,34.6945,86.0076,60.2380,145.3020,0,U,36395,999,6028,0,-.89E-6,0
CRYOSAT 2,2010-013A,2026-07-10T07:22:57.167040,14.51897242,.0002322,92.0358,282.9223,98.0247,262.1224,0,U,36508,999,86143,.30810787E-4,.127E-5,0
X-SAT,2011-015C,2026-07-10T06:04:04.653696,14.25213879,.00127145,98.3524,167.1788,276.8745,83.0988,0,U,37389,999,79096,.13644389E-3,.28E-5,0
GCOM-W1 (SHIZUKU),2012-025A,2026-07-10T07:53:38.083200,14.57087597,.00013744,98.2025,131.5352,74.4932,78.1121,0,U,38337,999,75240,.68026439E-4,.261E-5,0
NUSTAR,2012-031A,2026-07-10T08:00:03.000384,15.09017539,.0007078,6.0248,220.4971,95.5605,68.6517,0,U,38358,999,130,.18094883E-3,.3806E-4,0
NEOSSAT,2013-009D,2026-07-09T10:32:50.032608,14.35834260,.00110803,98.4187,9.9440,173.9159,186.2163,0,U,39089,999,69993,.52520512E-4,.109E-5,0
BRITE-AUSTRIA,2013-009F,2026-07-09T23:37:17.286240,14.36551135,.0010453,98.4005,9.8568,165.5592,194.5896,0,U,39091,999,70032,.50636952E-4,.106E-5,0
IRIS,2013-033A,2026-07-10T06:18:02.922048,14.85930789,.00230876,97.9321,30.4669,242.0355,117.8524,0,U,39197,999,70380,.84779994E-4,.687E-5,0
HISAKI (SPRINT-A),2013-049A,2026-07-10T00:48:00.293472,13.55546435,.01369395,29.7200,103.8555,202.0707,157.3924,0,U,39253,999,63452,.24901941E-4,.85E-6,0
CASSIOPE,2013-055A,2026-07-10T05:43:56.443872,15.27193547,.02840679,80.9139,38.6818,344.6889,14.5871,0,U,39265,999,67118,.30743106E-3,.28633E-3,-.501568E-6
STSAT-3,2013-066G,2026-07-10T06:48:37.836864,15.02871860,.00089925,97.6196,160.8000,326.1439,33.9211,0,U,39422,999,68767,.11140683E-3,.1434E-4,0
SWARM B,2013-067A,2026-07-10T07:23:39.097824,15.28697573,.00025051,87.7452,335.2925,81.6982,278.4552,0,U,39451,999,68677,.87453175E-4,.2474E-4,0
